{
  "type": "FeatureCollection",
  "features": [
	{
	  "type": "Feature",
	  "properties": {
		"name": "Algoa Bay Landmass",
		"source": "Approximated from OpenStreetMap coastline (Cape Recife to Sundays River mouth)"
	  },
	  "geometry": {
		"type": "Polygon",
		"coordinates": [
		  [
			[25.7050, -34.0500],
			[25.6850, -34.0250],
			[25.6700, -34.0000],
			[25.6500, -33.9850],
			[25.6300, -33.9700],
			[25.6200, -33.9500],
			[25.6100, -33.9300],
			[25.6050, -33.9100],
			[25.6000, -33.8900],
			[25.6000, -33.8700],
			[25.6000, -33.8500],
			[25.6150, -33.8300],
			[25.6300, -33.8100],
			[25.6600, -33.7950],
			[25.6900, -33.7800],
			[25.7450, -33.7600],
			[25.8000, -33.7400],
			[25.8600, -33.7250],
			[25.9200, -33.7100],
			[25.1000, -33.7100],
			[25.1000, -34.0500],
			[25.7050, -34.0500]
		  ]
		]
	  }
	}
  ]
}
